STARLINK-3898           
1 52458U 22049H   26068.35960039  .00000234  00000+0  32796-4 0  9997
2 52458  53.2171  70.6007 0001400  93.0762 267.0390 15.08839708212064
GRBBETA                 
1 60237U 24128C   26068.70717138  .00006748  00000+0  46404-3 0  9996
2 60237  61.9904 205.0764 0051339 114.1677 246.4795 15.05794613 91289
